# Made by eph2tle, compiled Oct  4 2021 08:54:50
# Run at Sat Oct 16 21:14:15 2021
# Max error 0.2   (Following TLEs should be good to at least 0.2 degrees)
#
#    The following TLEs (Two-Line Elements) were generated by fitting
# a numerically-integrated ephemeris,  based on the orbit given below,
# to the SDP4/SGP4 models.  Each TLE is good for the interval between
# its epoch and the epoch of the subsequent TLE (usually one day).
# The maximum deviation between the numerically integrated ephemerides
# and the TLE-based ephemeris, in kilometers,  is given for each TLE
# as the "worst residual".
#
#    This fitting is done using the 'eph2tle' code packaged with Find_Orb.
# The code has details on how the TLEs were computed :
#
#    https://github.com/Bill-Gray/find_orb/eph2tle.cpp
#
#    Be warned:  the error given is that between the numerically
# integrated ephems and the TLE model.  There will usually be at
# least some additional difference between the ephems and the actual
# motion of the satellite,  especially if the ephemerides are based
# on a short arc.  If the following orbital elements say something
# like "[based on] 10 observations 2015 Jan. 1-13",  and the TLEs
# are for 2015 May,  the extrapolation may be tenuous at best.  If
# your application requires a specific level of accuracy,  you may
# want to contact me;  I can give you some idea as to the fit of the
# underlying data (and possibly TLEs based on newer data).
#
#   You can usually find the underlying observational data,  and the
# fitted orbit,  residuals,  ephemerides,  and sometimes some comments
# about the object,  among the pages listed at
#
#    https://www.projectpluto.com/pluto/mpecs/pseudo.htm
#
#    WARNING:  for this object,  "normal" TLEs cannot be fitted.  (This
# usually means an object with an hyperbolic or nearly-parabolic orbit.)
# For this and similar cases,   an alternative model is used,  in which
# most of the traditional TLE data is replaced by six signed 8-digit hex
# numbers.  These six numbers are a state vector,  numerically integrated
# using a simplified force model.  This is necessary for objects at L2 or
# L1,  and sometimes for objects in high orbits where the SDP4/SGP4 model
# fails.  I'll be posting source code for this.  But be aware:  it's my
# own extension,  doesn't work with other code,  and is therefore used
# only when necessary.
#
#    Also,  if you use a TLE outside the "correct" time range (between
# its MJD and that of the next TLE),  all bets are off.  I've carefully
# computed and minimized the worst error over the "correct" time frame,
# but the ephemeris may (or may not) diverge wildly outside of it.
#
# Ephem range: 59503.500000 59533.500000 1.000000
# Created Sat Oct 16 21:14:02 2021
# Ephemeris start: 16 Oct 2021 12:00:00
# Ephemeris end:   15 Nov 2021 12:00:00
# Times are all TDT
# Positions/velocities are in ecliptic J2000
# Orbital elements:  Lucy-1
#    Perigee 2021 Oct 16.42983 +/- 0.000324 TT = 10:18:57 (JD 2459503.92983)
# Epoch 2021 Oct 17.0 TT = JDT 2459504.5                        Find_Orb
# q  6542.17752 +/- 2.64              (J2000 equator)
# H   26.8  G 0.15                    Peri.  240.01214 +/- 0.0057
#                                     Node     6.57903 +/- 0.018
# e   1.4702712 +/- 0.000669          Incl.   31.48262 +/- 0.019
# 60 of 61 observations 2021 Oct. 16 (3.0 hr); mean residual 0".344
#
# 1 NoradU COSPAR   Epoch.epoch     dn/dt/2  d2n/dt2/6 BSTAR    T El# C
# 2 NoradU Inclina RAAscNode Eccent  ArgPeri MeanAno  MeanMotion Rev# C

# Worst residual: 3.66 km
# MJD 59503.500000 (2021 Oct 16 12:00)
Lucy-1
1 99999U 00000    21289.49919926 +000RK37T +0001RNWL -0000VPBKH 13867
2 99999                          +0012GJPV +000BBA3C +00045A6K     08

# Worst residual: 19.25 km
# MJD 59504.500000 (2021 Oct 17 12:00)
Lucy-1
1 99999U 00000    21290.49919926 +008GRIIR +002ID2VT +000XANWMH 13869
2 99999                          +000UVZ7D +0009Y01F +0003UP0L     07

# Worst residual: 2.42 km
# MJD 59505.500000 (2021 Oct 18 12:00)
Lucy-1
1 99999U 00000    21291.49919926 +00FTQPYJ +004VQ00F +001UDJABH 13863
2 99999                          +000UJ1DT +0009U9J5 +0003TC8U     02

# Worst residual: 0.78 km
# MJD 59506.500000 (2021 Oct 19 12:00)
Lucy-1
1 99999U 00000    21292.49919926 +00N4YRMM +0078MHMG +002RAWNOH 13860
2 99999                          +000UF7FS +0009THDF +0003T50H     01

# Worst residual: 0.77 km
# MJD 59507.500000 (2021 Oct 20 12:00)
Lucy-1
1 99999U 00000    21293.49919926 +00UFO0N0 +009LGX5D +003O8DI0H 13865
2 99999                          +000UEAU0 +0009TO64 +0003TBFL     09

# Worst residual: 0.90 km
# MJD 59508.500000 (2021 Oct 21 12:00)
Lucy-1
1 99999U 00000    21294.49919926 +011QCOOM +00BYFMK7 +004L8FGYH 13862
2 99999                          +000UEY9E +0009UFTL +0003TQ4I     02

# Worst residual: 1.07 km
# MJD 59509.500000 (2021 Oct 22 12:00)
Lucy-1
1 99999U 00000    21295.49919926 +0191BTZX +00EBN1CY +005ICUAQH 13869
2 99999                          +000UGOD3 +0009VOCA +0003UBLS     02

# Worst residual: 1.17 km
# MJD 59510.500000 (2021 Oct 23 12:00)
Lucy-1
1 99999U 00000    21296.49919926 +01GCTOME +00GP71SD +006FN6QVH 13864
2 99999                          +000UJ978 +0009XCQO +0003V3JR     06

# Worst residual: 1.20 km
# MJD 59511.500000 (2021 Oct 24 12:00)
Lucy-1
1 99999U 00000    21297.49919926 +01NP11HR +00J37H7Q +007D5100H 13867
2 99999                          +000UMKD9 +0009ZH6C +0003W22X     08

# Worst residual: 1.31 km
# MJD 59512.500000 (2021 Oct 25 12:00)
Lucy-1
1 99999U 00000    21298.49919926 +01V23UYI +00LHS8QZ +008AVZAGH 13867
2 99999                          +000UQIZP +000A22AK +0003X7IX     01

# Worst residual: 1.53 km
# MJD 59513.500000 (2021 Oct 26 12:00)
Lucy-1
1 99999U 00000    21299.49919926 +022G7I2M +00NX1G7D +0098XR3MH 13867
2 99999                          +000UV2XI +000A54YY +0003YKAU     01

# Worst residual: 1.82 km
# MJD 59514.500000 (2021 Oct 27 12:00)
Lucy-1
1 99999U 00000    21300.49919926 +029VGV5K +00QD3FIS +00A7C5RUH 13860
2 99999                          +000V06ET +000A8Q77 +000404VM     03

# Worst residual: 2.15 km
# MJD 59515.500000 (2021 Oct 28 12:00)
Lucy-1
1 99999U 00000    21301.49919926 +02HC0G21 +00SU2RJV +00B654VLH 13862
2 99999                          +000V5RU2 +000ACV1N +00041XRG     00

# Worst residual: 2.46 km
# MJD 59516.500000 (2021 Oct 29 12:00)
Lucy-1
1 99999U 00000    21302.49919926 +02OTYD5F +00VC4AKW +00C5EQHKH 13867
2 99999                          +000VBTNU +000AHKML +00043ZHQ     04

# Worst residual: 2.73 km
# MJD 59517.500000 (2021 Oct 30 12:00)
Lucy-1
1 99999U 00000    21303.49919926 +02WDEDDP +00XVD4RL +00D575HAH 13865
2 99999                          +000VIAB3 +000AMW3X +00046AN2     05

# Worst residual: 2.94 km
# MJD 59518.500000 (2021 Oct 31 12:00)
Lucy-1
1 99999U 00000    21304.49919926 +033YFTH2 +010FYOG2 +00E5KPSUH 13869
2 99999                          +000VP41S +000ASUOD +00048VT1     05

# Worst residual: 3.14 km
# MJD 59519.500000 (2021 Nov  1 12:00)
Lucy-1
1 99999U 00000    21305.49919926 +03BL5MAI +01322M3X +00F6LWNKH 13869
2 99999                          +000VW8X7 +000AZHH9 +0004BRLN     05

# Worst residual: 3.39 km
# MJD 59520.500000 (2021 Nov  2 12:00)
Lucy-1
1 99999U 00000    21306.49919926 +03J9M6EI +015PUVNS +00G8DCE6H 13863
2 99999                          +000W3MN8 +000B6TIY +0004EYLI     08

# Worst residual: 3.71 km
# MJD 59521.500000 (2021 Nov  3 12:00)
Lucy-1
1 99999U 00000    21307.49919926 +03QZVB7A +018FHMJI +00HAXRWHH 13865
2 99999                          +000WB6LQ +000BEVIU +0004IH96     02

# Worst residual: 4.02 km
# MJD 59522.500000 (2021 Nov  4 12:00)
Lucy-1
1 99999U 00000    21308.49919926 +03YRY6AV +01B754DB +00IEE17VH 13861
2 99999                          +000WITXL +000BNNPB +0004MBTU     01

# Worst residual: 4.20 km
# MJD 59523.500000 (2021 Nov  5 12:00)
Lucy-1
1 99999U 00000    21309.49919926 +046LV88C +01E0ZM7V +00JISZDWH 13862
2 99999                          +000WQHQH +000BX5P1 +0004QIAB     07

# Worst residual: 4.22 km
# MJD 59524.500000 (2021 Nov  6 12:00)
Lucy-1
1 99999U 00000    21310.49919926 +04EHM9E1 +01GX77AU +00KO9FSUH 13868
2 99999                          +000WY3DI +000C7CIZ +0004V0A4     05

# Worst residual: 4.12 km
# MJD 59525.500000 (2021 Nov  7 12:00)
Lucy-1
1 99999U 00000    21311.49919926 +04MF6HK4 +01JVXOBN +00LUU3NTH 13869
2 99999                          +000X5KR4 +000CI6RX +0004ZT79     02

# Worst residual: 4.08 km
# MJD 59526.500000 (2021 Nov  8 12:00)
Lucy-1
1 99999U 00000    21312.49919926 +04UEIPAQ +01MXCGPU +00N2LI5AH 13864
2 99999                          +000XCWGC +000CTMU8 +00054WAF     04

# Worst residual: 4.23 km
# MJD 59527.500000 (2021 Nov  9 12:00)
Lucy-1
1 99999U 00000    21313.49919926 +052FLFTA +01Q1KM9O +00OBLZQ7H 13868
2 99999                          +000XK1PJ +000D5N79 +0005A8RS     02

# Worst residual: 4.60 km
# MJD 59528.500000 (2021 Nov 10 12:00)
Lucy-1
1 99999U 00000    21314.49919926 +05AID3Y4 +01T8QUR5 +00PLXQJ6H 13866
2 99999                          +000XR08S +000DI6MC +0005FTYS     06

# Worst residual: 5.09 km
# MJD 59529.500000 (2021 Nov 11 12:00)
Lucy-1
1 99999U 00000    21315.49919926 +05IMS3IU +01WIZMPM +00QXMRELH 13864
2 99999                          +000XXS2C +000DV879 +0005LNC3     01

# Worst residual: 5.60 km
# MJD 59530.500000 (2021 Nov 12 12:00)
Lucy-1
1 99999U 00000    21316.49919926 +05QSST0C +01ZWF8EC +00SAQZ7SH 13867
2 99999                          +000Y4DAF +000E8RDM +0005ROHV     04

# Worst residual: 6.05 km
# MJD 59531.500000 (2021 Nov 13 12:00)
Lucy-1
1 99999U 00000    21317.49919926 +05Z0DNX9 +023D5UE4 +00TPC83YH 13866
2 99999                          +000YAS11 +000EMRUQ +0005XX73     04

# Worst residual: 6.40 km
# MJD 59532.500000 (2021 Nov 14 12:00)
Lucy-1
1 99999U 00000    21318.49919926 +0679H4HL +026XBLLG +00V5GAJ7H 13864
2 99999                          +000YH0BT +000F19IZ +00064DAI     07
Avg worst resid: 3.63 km
Worst residual in entire run: 19.25 km on MJD 59504.5
       1     3     10    30    100   300   1K    3K    10K   km
     3    11    15     1     0     0     0     0     0     0
